{"fetched_at":"2026-07-16T17:46:10.611Z","source":"https://celestrak.org/NORAD/elements/gp.php?GROUP=spire&FORMAT=JSON","constellation":"spire","records":[{"OBJECT_NAME":"LEMUR-2-VALHALLA","OBJECT_ID":"2024-022B","EPOCH":"2026-07-16T02:49:40.814400","CLASSIFICATION_TYPE":"U","MEAN_MOTION":15.40504761,"ECCENTRICITY":0.00091235,"INCLINATION":97.4075,"RA_OF_ASC_NODE":47.4706,"ARG_OF_PERICENTER":21.005,"MEAN_ANOMALY":339.1569,"EPHEMERIS_TYPE":0,"NORAD_CAT_ID":58900,"ELEMENT_SET_NO":999,"REV_AT_EPOCH":13672,"BSTAR":0.00021992733,"MEAN_MOTION_DOT":0.00008848,"MEAN_MOTION_DDOT":0},{"OBJECT_NAME":"LEMUR-2-CAEL","OBJECT_ID":"2024-022E","EPOCH":"2026-07-16T04:01:13.542240","CLASSIFICATION_TYPE":"U","MEAN_MOTION":15.41875695,"ECCENTRICITY":0.00070229,"INCLINATION":97.4056,"RA_OF_ASC_NODE":48.5091,"ARG_OF_PERICENTER":6.0617,"MEAN_ANOMALY":354.0714,"EPHEMERIS_TYPE":0,"NORAD_CAT_ID":58903,"ELEMENT_SET_NO":999,"REV_AT_EPOCH":13680,"BSTAR":0.00022563031,"MEAN_MOTION_DOT":0.00009499,"MEAN_MOTION_DDOT":0},{"OBJECT_NAME":"LEMUR-2-JOHNNYTRUONG","OBJECT_ID":"2024-043BA","EPOCH":"2026-07-15T23:40:21.674208","CLASSIFICATION_TYPE":"U","MEAN_MOTION":15.62606919,"ECCENTRICITY":0.00040448,"INCLINATION":97.5396,"RA_OF_ASC_NODE":350.5235,"ARG_OF_PERICENTER":92.1391,"MEAN_ANOMALY":268.033,"EPHEMERIS_TYPE":0,"NORAD_CAT_ID":59146,"ELEMENT_SET_NO":999,"REV_AT_EPOCH":13253,"BSTAR":0.00029763934,"MEAN_MOTION_DOT":0.00026505,"MEAN_MOTION_DDOT":0},{"OBJECT_NAME":"LEMUR-2-TOMATOKECHUP","OBJECT_ID":"2024-149D","EPOCH":"2026-07-16T05:19:03.193536","CLASSIFICATION_TYPE":"U","MEAN_MOTION":15.36594859,"ECCENTRICITY":0.00033348,"INCLINATION":97.3797,"RA_OF_ASC_NODE":279.3527,"ARG_OF_PERICENTER":120.7156,"MEAN_ANOMALY":239.4418,"EPHEMERIS_TYPE":0,"NORAD_CAT_ID":60471,"ELEMENT_SET_NO":999,"REV_AT_EPOCH":10662,"BSTAR":0.00016436758,"MEAN_MOTION_DOT":0.0000579,"MEAN_MOTION_DDOT":0},{"OBJECT_NAME":"LEMUR-2-STELLA","OBJECT_ID":"2024-149BT","EPOCH":"2026-07-16T04:45:51.123168","CLASSIFICATION_TYPE":"U","MEAN_MOTION":15.12381661,"ECCENTRICITY":0.00012524,"INCLINATION":97.6736,"RA_OF_ASC_NODE":279.7913,"ARG_OF_PERICENTER":119.424,"MEAN_ANOMALY":240.7115,"EPHEMERIS_TYPE":0,"NORAD_CAT_ID":60533,"ELEMENT_SET_NO":999,"REV_AT_EPOCH":10488,"BSTAR":0.00030424857,"MEAN_MOTION_DOT":0.00005213,"MEAN_MOTION_DDOT":0},{"OBJECT_NAME":"LEMUR-2-MARHISYAM","OBJECT_ID":"2024-149BW","EPOCH":"2026-07-16T04:33:19.894176","CLASSIFICATION_TYPE":"U","MEAN_MOTION":15.11787785,"ECCENTRICITY":0.00023383,"INCLINATION":97.6879,"RA_OF_ASC_NODE":280.2601,"ARG_OF_PERICENTER":68.0137,"MEAN_ANOMALY":292.1341,"EPHEMERIS_TYPE":0,"NORAD_CAT_ID":60536,"ELEMENT_SET_NO":999,"REV_AT_EPOCH":10486,"BSTAR":0.0003226253,"MEAN_MOTION_DOT":0.00005441,"MEAN_MOTION_DDOT":0},{"OBJECT_NAME":"LEMUR-2-AHMED-ASRAR","OBJECT_ID":"2024-149DN","EPOCH":"2026-07-16T04:41:15.406080","CLASSIFICATION_TYPE":"U","MEAN_MOTION":15.13317903,"ECCENTRICITY":0.00012935,"INCLINATION":97.7004,"RA_OF_ASC_NODE":282.4729,"ARG_OF_PERICENTER":203.7256,"MEAN_ANOMALY":156.3916,"EPHEMERIS_TYPE":0,"NORAD_CAT_ID":60576,"ELEMENT_SET_NO":999,"REV_AT_EPOCH":10495,"BSTAR":0.00034500208,"MEAN_MOTION_DOT":0.00006078,"MEAN_MOTION_DDOT":0},{"OBJECT_NAME":"LEMUR-2-LLOYD","OBJECT_ID":"2024-149DP","EPOCH":"2026-07-16T05:01:03.435456","CLASSIFICATION_TYPE":"U","MEAN_MOTION":15.09760819,"ECCENTRICITY":0.00047335,"INCLINATION":97.6745,"RA_OF_ASC_NODE":278.3629,"ARG_OF_PERICENTER":70.1548,"MEAN_ANOMALY":290.019,"EPHEMERIS_TYPE":0,"NORAD_CAT_ID":60577,"ELEMENT_SET_NO":999,"REV_AT_EPOCH":10477,"BSTAR":0.00027902029,"MEAN_MOTION_DOT":0.0000444,"MEAN_MOTION_DDOT":0},{"OBJECT_NAME":"LEMUR-2-SQUIRRELCOMM","OBJECT_ID":"2024-149DQ","EPOCH":"2026-07-16T04:46:53.244768","CLASSIFICATION_TYPE":"U","MEAN_MOTION":15.07450971,"ECCENTRICITY":0.00040459,"INCLINATION":97.6708,"RA_OF_ASC_NODE":278.024,"ARG_OF_PERICENTER":322.9708,"MEAN_ANOMALY":37.1239,"EPHEMERIS_TYPE":0,"NORAD_CAT_ID":60578,"ELEMENT_SET_NO":999,"REV_AT_EPOCH":10477,"BSTAR":0.00014008842,"MEAN_MOTION_DOT":0.0000206,"MEAN_MOTION_DDOT":0},{"OBJECT_NAME":"LEMUR-2-SIERRINI","OBJECT_ID":"2024-149DR","EPOCH":"2026-07-16T05:15:10.977984","CLASSIFICATION_TYPE":"U","MEAN_MOTION":15.11524285,"ECCENTRICITY":0.00064744,"INCLINATION":97.6842,"RA_OF_ASC_NODE":279.9499,"ARG_OF_PERICENTER":87.8684,"MEAN_ANOMALY":272.3287,"EPHEMERIS_TYPE":0,"NORAD_CAT_ID":60579,"ELEMENT_SET_NO":999,"REV_AT_EPOCH":10484,"BSTAR":0.00031295734,"MEAN_MOTION_DOT":0.00005239,"MEAN_MOTION_DDOT":0},{"OBJECT_NAME":"LEMUR-2-WILSON","OBJECT_ID":"2025-009CP","EPOCH":"2026-07-16T04:56:06.038016","CLASSIFICATION_TYPE":"U","MEAN_MOTION":14.95277923,"ECCENTRICITY":0.00019501,"INCLINATION":97.702,"RA_OF_ASC_NODE":275.1617,"ARG_OF_PERICENTER":319.294,"MEAN_ANOMALY":40.8135,"EPHEMERIS_TYPE":0,"NORAD_CAT_ID":62694,"ELEMENT_SET_NO":999,"REV_AT_EPOCH":8169,"BSTAR":0.000069278216,"MEAN_MOTION_DOT":0.00000706,"MEAN_MOTION_DDOT":0},{"OBJECT_NAME":"LEMUR-2-STAR-FOX","OBJECT_ID":"2025-009CR","EPOCH":"2026-07-16T04:36:43.385184","CLASSIFICATION_TYPE":"U","MEAN_MOTION":15.02847456,"ECCENTRICITY":0.00020766,"INCLINATION":97.6906,"RA_OF_ASC_NODE":278.5926,"ARG_OF_PERICENTER":38.2858,"MEAN_ANOMALY":321.8515,"EPHEMERIS_TYPE":0,"NORAD_CAT_ID":62696,"ELEMENT_SET_NO":999,"REV_AT_EPOCH":8191,"BSTAR":0.00025160171,"MEAN_MOTION_DOT":0.00003311,"MEAN_MOTION_DDOT":0},{"OBJECT_NAME":"LEMUR-2-ARIANNA","OBJECT_ID":"2025-009CU","EPOCH":"2026-07-16T04:34:30.814752","CLASSIFICATION_TYPE":"U","MEAN_MOTION":15.02849743,"ECCENTRICITY":0.00024414,"INCLINATION":97.6848,"RA_OF_ASC_NODE":278.3426,"ARG_OF_PERICENTER":45.4867,"MEAN_ANOMALY":314.6558,"EPHEMERIS_TYPE":0,"NORAD_CAT_ID":62699,"ELEMENT_SET_NO":999,"REV_AT_EPOCH":8191,"BSTAR":0.00026779139,"MEAN_MOTION_DOT":0.00003528,"MEAN_MOTION_DDOT":0},{"OBJECT_NAME":"LEMUR-2-ALISIA","OBJECT_ID":"2025-009DB","EPOCH":"2026-07-16T03:54:24.355296","CLASSIFICATION_TYPE":"U","MEAN_MOTION":15.03183137,"ECCENTRICITY":0.00044207,"INCLINATION":97.6971,"RA_OF_ASC_NODE":279.1419,"ARG_OF_PERICENTER":126.4435,"MEAN_ANOMALY":233.7199,"EPHEMERIS_TYPE":0,"NORAD_CAT_ID":62706,"ELEMENT_SET_NO":999,"REV_AT_EPOCH":10451,"BSTAR":0.0002943943,"MEAN_MOTION_DOT":0.0000392,"MEAN_MOTION_DDOT":0},{"OBJECT_NAME":"LEMUR-2-ROUNDTRIPPER","OBJECT_ID":"2025-009DG","EPOCH":"2026-07-16T04:00:53.958816","CLASSIFICATION_TYPE":"U","MEAN_MOTION":15.04240391,"ECCENTRICITY":0.00044876,"INCLINATION":97.7251,"RA_OF_ASC_NODE":279.8114,"ARG_OF_PERICENTER":62.0486,"MEAN_ANOMALY":298.1193,"EPHEMERIS_TYPE":0,"NORAD_CAT_ID":62711,"ELEMENT_SET_NO":999,"REV_AT_EPOCH":8198,"BSTAR":0.0003113625,"MEAN_MOTION_DOT":0.00004268,"MEAN_MOTION_DDOT":0},{"OBJECT_NAME":"LEMUR-2-MYNAMEISJEFF","OBJECT_ID":"2025-009DH","EPOCH":"2026-07-15T18:23:59.378208","CLASSIFICATION_TYPE":"U","MEAN_MOTION":15.04228449,"ECCENTRICITY":0.0004115,"INCLINATION":97.7301,"RA_OF_ASC_NODE":279.8094,"ARG_OF_PERICENTER":96.2499,"MEAN_ANOMALY":263.9195,"EPHEMERIS_TYPE":0,"NORAD_CAT_ID":62712,"ELEMENT_SET_NO":999,"REV_AT_EPOCH":8192,"BSTAR":0.00032837,"MEAN_MOTION_DOT":0.00004503,"MEAN_MOTION_DDOT":0}]}
